[{"OBJECT_NAME":"NUSAT-50 (NANCY ROMAN)","OBJECT_ID":"2024-149AB","EPOCH":"2026-03-09T19:15:16.765632","MEAN_MOTION":15.29713355,"ECCENTRICITY":0.00025229,"INCLINATION":97.3817,"RA_OF_ASC_NODE":150.7693,"ARG_OF_PERICENTER":238.0469,"MEAN_ANOMALY":122.0527,"EPHEMERIS_TYPE":0,"CLASSIFICATION_TYPE":"U","NORAD_CAT_ID":60493,"ELEMENT_SET_NO":999,"REV_AT_EPOCH":8693,"BSTAR":0.0004225155,"MEAN_MOTION_DOT":0.00012094,"MEAN_MOTION_DDOT":0},{"OBJECT_NAME":"STARLINK-34976","OBJECT_ID":"2025-176M","EPOCH":"2026-03-09T22:25:26.414400","MEAN_MOTION":15.30194246,"ECCENTRICITY":0.00010997,"INCLINATION":53.1579,"RA_OF_ASC_NODE":151.8934,"ARG_OF_PERICENTER":92.211,"MEAN_ANOMALY":267.9016,"EPHEMERIS_TYPE":0,"CLASSIFICATION_TYPE":"U","NORAD_CAT_ID":65209,"ELEMENT_SET_NO":999,"REV_AT_EPOCH":3315,"BSTAR":0.00076211159,"MEAN_MOTION_DOT":0.00022276,"MEAN_MOTION_DDOT":0}]
